{"type": "FeatureCollection", "features": [ {"type": "Feature", "properties": {"norad_id": 42741, "name": "EUTELSAT 172B", "group": "eutelsat", "lat": 0.003683872411028225, "lon": -167.79886656606655, "alt_km": 35786.07104547538, "timestamp": "2025-12-17T19:34:07.716107+00:00", "meta": {"OBJECT_NAME": "EUTELSAT 172B", "OBJECT_ID": "2017-029B", "EPOCH": "2025-12-17T03:52:16.917024", "MEAN_MOTION": 1.0027216, "ECCENTRICITY": 1.847e-05, "INCLINATION": 0.0474, "RA_OF_ASC_NODE": 152.6379, "ARG_OF_PERICENTER": 300.6567, "MEAN_ANOMALY": 222.8089, "EPHEMERIS_TYPE": 0, "CLASSIFICATION_TYPE": "U", "NORAD_CAT_ID": 42741, "ELEMENT_SET_NO": 999, "REV_AT_EPOCH": 3190, "BSTAR": 0, "MEAN_MOTION_DOT": 1.9e-07, "MEAN_MOTION_DDOT": 0}, "tle": {"line1": "1 42741U 17029B   25351.16130691  .00000019  00000+0  00000+0 0  9998", "line2": "2 42741   0.0474 152.6379 0000184 300.6567 222.8089  1.00272160 31901"}}, "geometry": {"type": "Point", "coordinates": [-167.79886656606655, 0.003683872411028225]}}, {"type": "Feature", "properties": {"norad_id": 44334, "name": "EUTELSAT 7C", "group": "eutelsat", "lat": -0.01080834269868714, "lon": 27.217231418474732, "alt_km": 35795.83400919695, "timestamp": "2025-12-17T19:34:07.716124+00:00", "meta": {"OBJECT_NAME": "EUTELSAT 7C", "OBJECT_ID": "2019-034B", "EPOCH": "2025-12-16T15:06:04.817088", "MEAN_MOTION": 1.00271584, "ECCENTRICITY": 0.00030764, "INCLINATION": 0.0725, "RA_OF_ASC_NODE": 176.9051, "ARG_OF_PERICENTER": 71.4959, "MEAN_ANOMALY": 70.6234, "EPHEMERIS_TYPE": 0, "CLASSIFICATION_TYPE": "U", "NORAD_CAT_ID": 44334, "ELEMENT_SET_NO": 999, "REV_AT_EPOCH": 500, "BSTAR": 0, "MEAN_MOTION_DOT": 7.2e-07, "MEAN_MOTION_DDOT": 0}, "tle": {"line1": "1 44334U 19034B   25350.62922242  .00000072  00000+0  00000+0 0  9996", "line2": "2 44334   0.0725 176.9051 0003076  71.4959  70.6234  1.00271584  5009"}}, "geometry": {"type": "Point", "coordinates": [27.217231418474732, -0.01080834269868714]}}, {"type": "Feature", "properties": {"norad_id": 44624, "name": "EUTELSAT 5 WEST B", "group": "eutelsat", "lat": 0.06586659443632062, "lon": 15.259011604949102, "alt_km": 35789.95176377788, "timestamp": "2025-12-17T19:34:07.716141+00:00", "meta": {"OBJECT_NAME": "EUTELSAT 5 WEST B", "OBJECT_ID": "2019-067A", "EPOCH": "2025-12-17T04:44:26.920320", "MEAN_MOTION": 1.00273488, "ECCENTRICITY": 0.00031861, "INCLINATION": 0.0711, "RA_OF_ASC_NODE": 328.9443, "ARG_OF_PERICENTER": 297.4561, "MEAN_ANOMALY": 245.8033, "EPHEMERIS_TYPE": 0, "CLASSIFICATION_TYPE": "U", "NORAD_CAT_ID": 44624, "ELEMENT_SET_NO": 999, "REV_AT_EPOCH": 2261, "BSTAR": 0, "MEAN_MOTION_DOT": -1.7e-07, "MEAN_MOTION_DDOT": 0}, "tle": {"line1": "1 44624U 19067A   25351.19753380 -.00000017  00000+0  00000+0 0  9992", "line2": "2 44624   0.0711 328.9443 0003186 297.4561 245.8033  1.00273488 22615"}}, "geometry": {"type": "Point", "coordinates": [15.259011604949102, 0.06586659443632062]}}, {"type": "Feature", "properties": {"norad_id": 45027, "name": "EUTELSAT KONNECT", "group": "eutelsat", "lat": -0.04646561564394483, "lon": 27.414091735245503, "alt_km": 35787.2846978593, "timestamp": "2025-12-17T19:34:07.716153+00:00", "meta": {"OBJECT_NAME": "EUTELSAT KONNECT", "OBJECT_ID": "2020-005B", "EPOCH": "2025-12-16T16:48:56.195424", "MEAN_MOTION": 1.00270775, "ECCENTRICITY": 0.000134, "INCLINATION": 0.0734, "RA_OF_ASC_NODE": 96, "ARG_OF_PERICENTER": 191.486, "MEAN_ANOMALY": 57.5312, "EPHEMERIS_TYPE": 0, "CLASSIFICATION_TYPE": "U", "NORAD_CAT_ID": 45027, "ELEMENT_SET_NO": 999, "REV_AT_EPOCH": 2250, "BSTAR": 0, "MEAN_MOTION_DOT": 7.3e-07, "MEAN_MOTION_DDOT": 0}, "tle": {"line1": "1 45027U 20005B   25350.70065041  .00000073  00000+0  00000+0 0  9991", "line2": "2 45027   0.0734  96.0000 0001340 191.4860  57.5312  1.00270775 22507"}}, "geometry": {"type": "Point", "coordinates": [27.414091735245503, -0.04646561564394483]}}, {"type": "Feature", "properties": {"norad_id": 49056, "name": "EUTELSAT QUANTUM", "group": "eutelsat", "lat": 0.03500558752736226, "lon": 67.95495761925274, "alt_km": 35798.564654215304, "timestamp": "2025-12-17T19:34:07.716165+00:00", "meta": {"OBJECT_NAME": "EUTELSAT QUANTUM", "OBJECT_ID": "2021-069B", "EPOCH": "2025-12-16T10:09:25.725024", "MEAN_MOTION": 1.00273452, "ECCENTRICITY": 0.00035682, "INCLINATION": 0.0118, "RA_OF_ASC_NODE": 5.206, "ARG_OF_PERICENTER": 272.6079, "MEAN_ANOMALY": 7.5753, "EPHEMERIS_TYPE": 0, "CLASSIFICATION_TYPE": "U", "NORAD_CAT_ID": 49056, "ELEMENT_SET_NO": 999, "REV_AT_EPOCH": 1609, "BSTAR": 0, "MEAN_MOTION_DOT": 1.49e-06, "MEAN_MOTION_DDOT": 0}, "tle": {"line1": "1 49056U 21069B   25350.42321441  .00000149  00000+0  00000+0 0  9990", "line2": "2 49056   0.0118   5.2060 0003568 272.6079   7.5753  1.00273452 16091"}}, "geometry": {"type": "Point", "coordinates": [67.95495761925274, 0.03500558752736226]}}, {"type": "Feature", "properties": {"norad_id": 53765, "name": "EUTELSAT KONNECT VHTS", "group": "eutelsat", "lat": -0.041705154100026474, "lon": 22.95382866242886, "alt_km": 35793.92201141502, "timestamp": "2025-12-17T19:34:07.716177+00:00", "meta": {"OBJECT_NAME": "EUTELSAT KONNECT VHTS", "OBJECT_ID": "2022-110A", "EPOCH": "2025-12-16T21:55:49.974240", "MEAN_MOTION": 1.00270385, "ECCENTRICITY": 0.00023075, "INCLINATION": 0.0652, "RA_OF_ASC_NODE": 101.283, "ARG_OF_PERICENTER": 141.3704, "MEAN_ANOMALY": 174.8367, "EPHEMERIS_TYPE": 0, "CLASSIFICATION_TYPE": "U", "NORAD_CAT_ID": 53765, "ELEMENT_SET_NO": 999, "REV_AT_EPOCH": 499, "BSTAR": 0, "MEAN_MOTION_DOT": 4.1e-07, "MEAN_MOTION_DDOT": 0}, "tle": {"line1": "1 53765U 22110A   25350.91377285  .00000041  00000+0  00000+0 0  9992", "line2": "2 53765   0.0652 101.2830 0002307 141.3704 174.8367  1.00270385  4992"}}, "geometry": {"type": "Point", "coordinates": [22.95382866242886, -0.041705154100026474]}}, {"type": "Feature", "properties": {"norad_id": 54048, "name": "EUTELSAT HOTBIRD 13F", "group": "eutelsat", "lat": 0.05960362735447539, "lon": 33.21545643857866, "alt_km": 35777.48410178, "timestamp": "2025-12-17T19:34:07.716189+00:00", "meta": {"OBJECT_NAME": "EUTELSAT HOTBIRD 13F", "OBJECT_ID": "2022-134A", "EPOCH": "2025-12-14T22:02:26.653056", "MEAN_MOTION": 1.0027139, "ECCENTRICITY": 0.00023413, "INCLINATION": 0.0492, "RA_OF_ASC_NODE": 293.4772, "ARG_OF_PERICENTER": 68.5165, "MEAN_ANOMALY": 65.4415, "EPHEMERIS_TYPE": 0, "CLASSIFICATION_TYPE": "U", "NORAD_CAT_ID": 54048, "ELEMENT_SET_NO": 999, "REV_AT_EPOCH": 1152, "BSTAR": 0, "MEAN_MOTION_DOT": 1.07e-06, "MEAN_MOTION_DDOT": 0}, "tle": {"line1": "1 54048U 22134A   25348.91836404  .00000107  00000+0  00000+0 0  9996", "line2": "2 54048   0.0492 293.4772 0002341  68.5165  65.4415  1.00271390 11520"}}, "geometry": {"type": "Point", "coordinates": [33.21545643857866, 0.05960362735447539]}}, {"type": "Feature", "properties": {"norad_id": 54225, "name": "EUTELSAT HOTBIRD 13G", "group": "eutelsat", "lat": 0.03544748903196003, "lon": 33.186244988081846, "alt_km": 35791.98393987706, "timestamp": "2025-12-17T19:34:07.716201+00:00", "meta": {"OBJECT_NAME": "EUTELSAT HOTBIRD 13G", "OBJECT_ID": "2022-146A", "EPOCH": "2025-12-16T23:41:28.142592", "MEAN_MOTION": 1.00272, "ECCENTRICITY": 0.00018519, "INCLINATION": 0.051, "RA_OF_ASC_NODE": 235.253, "ARG_OF_PERICENTER": 299.0172, "MEAN_ANOMALY": 279.9588, "EPHEMERIS_TYPE": 0, "CLASSIFICATION_TYPE": "U", "NORAD_CAT_ID": 54225, "ELEMENT_SET_NO": 999, "REV_AT_EPOCH": 564, "BSTAR": 0, "MEAN_MOTION_DOT": 1.12e-06, "MEAN_MOTION_DDOT": 0}, "tle": {"line1": "1 54225U 22146A   25350.98713128  .00000112  00000+0  00000+0 0  9999", "line2": "2 54225   0.0510 235.2530 0001851 299.0172 279.9588  1.00272000  5646"}}, "geometry": {"type": "Point", "coordinates": [33.186244988081846, 0.03544748903196003]}}, {"type": "Feature", "properties": {"norad_id": 54259, "name": "EUTELSAT 10B", "group": "eutelsat", "lat": -0.03344419921272795, "lon": 30.177060391035962, "alt_km": 35785.89727802549, "timestamp": "2025-12-17T19:34:07.716212+00:00", "meta": {"OBJECT_NAME": "EUTELSAT 10B", "OBJECT_ID": "2022-157A", "EPOCH": "2025-12-16T23:40:35.727168", "MEAN_MOTION": 1.00271982, "ECCENTRICITY": 6.86e-05, "INCLINATION": 0.0627, "RA_OF_ASC_NODE": 98.9676, "ARG_OF_PERICENTER": 20.2179, "MEAN_ANOMALY": 331.8099, "EPHEMERIS_TYPE": 0, "CLASSIFICATION_TYPE": "U", "NORAD_CAT_ID": 54259, "ELEMENT_SET_NO": 999, "REV_AT_EPOCH": 1120, "BSTAR": 0, "MEAN_MOTION_DOT": 9.3e-07, "MEAN_MOTION_DDOT": 0}, "tle": {"line1": "1 54259U 22157A   25350.98652462  .00000093  00000+0  00000+0 0  9999", "line2": "2 54259   0.0627  98.9676 0000686  20.2179 331.8099  1.00271982 11205"}}, "geometry": {"type": "Point", "coordinates": [30.177060391035962, -0.03344419921272795]}}, {"type": "Feature", "properties": {"norad_id": 59346, "name": "EUTELSAT 36D", "group": "eutelsat", "lat": 0.04257418310016079, "lon": 56.03806703231388, "alt_km": 35784.94727604791, "timestamp": "2025-12-17T19:34:07.716224+00:00", "meta": {"OBJECT_NAME": "EUTELSAT 36D", "OBJECT_ID": "2024-059A", "EPOCH": "2025-12-16T15:14:19.027680", "MEAN_MOTION": 1.00271145, "ECCENTRICITY": 3.915e-05, "INCLINATION": 0.0246, "RA_OF_ASC_NODE": 4.3594, "ARG_OF_PERICENTER": 5.8864, "MEAN_ANOMALY": 339.6859, "EPHEMERIS_TYPE": 0, "CLASSIFICATION_TYPE": "U", "NORAD_CAT_ID": 59346, "ELEMENT_SET_NO": 999, "REV_AT_EPOCH": 631, "BSTAR": 0, "MEAN_MOTION_DOT": 0, "MEAN_MOTION_DDOT": 0}, "tle": {"line1": "1 59346U 24059A   25350.63494245  .00000000  00000+0  00000+0 0  9997", "line2": "2 59346   0.0246   4.3594 0000391   5.8864 339.6859  1.00271145  6314"}}, "geometry": {"type": "Point", "coordinates": [56.03806703231388, 0.04257418310016079]}}]}